BEIDOU 3 (C01)          
1 36287U 10001A   22278.95352883 -.00000296  00000+0  00000+0 0  9998
2 36287   1.7017  47.8717 0000531   0.5463  89.9331  1.00271998 46623
BEIDOU 5 (C06)          
1 36828U 10036A   22277.77779883 -.00000159  00000+0  00000+0 0  9997
2 36828  54.1979 175.2307 0030260 187.1772  38.8272  1.00267238 44673
BEIDOU 6 (C04)          
1 37210U 10057A   22279.03862829 -.00000130  00000+0  00000+0 0  9999
2 37210   0.7542  39.3194 0007240 149.3990 359.8151  1.00270438 43745
BEIDOU 7 (C07)          
1 37256U 10068A   22278.72172284 -.00000176  00000+0  00000+0 0  9995
2 37256  50.0181 288.3248 0024010 205.4063 248.6271  1.00272318 43250
BEIDOU 8 (C08)          
1 37384U 11013A   22278.85863847 -.00000174  00000+0  00000+0 0  9992
2 37384  60.4532  53.1694 0024494 178.6209 200.2402  1.00278474 42134
BEIDOU 9 (C09)          
1 37763U 11038A   22278.71646601 -.00000108  00000+0  00000+0 0  9999
2 37763  54.4793 177.7262 0099021 227.7354 320.4543  1.00258562 41109
BEIDOU 10 (C10)         
1 37948U 11073A   22278.72186650 -.00000129  00000+0  00000+0 0  9990
2 37948  50.1351 287.9726 0086727 220.0839 222.0634  1.00269151 39863
BEIDOU 11 (C05)         
1 38091U 12008A   22278.98587384  .00000041  00000+0  00000+0 0  9998
2 38091   1.8083  69.8516 0010090 340.2233  18.1598  1.00271501 38937
BEIDOU 12 (C11)         
1 38250U 12018A   22278.74321394 -.00000094  00000+0  00000+0 0  9996
2 38250  56.6596 349.9181 0023711 250.8908 104.2229  1.86234425 71135
BEIDOU 13 (C12)         
1 38251U 12018B   22278.68813788 -.00000093  00000+0  00000+0 0  9992
2 38251  56.5751 349.2363 0014248 250.3868 111.9549  1.86234223 71145
BEIDOU 15 (C14)         
1 38775U 12050B   22279.24274233  .00000059  00000+0  00000+0 0  9999
2 38775  55.4653 107.9569 0011410 334.0842 235.9379  1.86231248 68522
BEIDOU 16 (C02)         
1 38953U 12059A   22278.94236719 -.00000192  00000+0  00000+0 0  9998
2 38953   1.1927  81.3318 0023863 295.5362  61.0753  1.00268700 36508
BEIDOU 17 (C31)         
1 40549U 15019A   22278.77509493 -.00000155  00000+0  00000+0 0  9993
2 40549  51.6957 311.4730 0038642 198.5297 239.3048  1.00273567 27548
BEIDOU 18 (C57)         
1 40748U 15037A   22278.38758478 -.00000092  00000+0  00000+0 0  9990
2 40748  55.8246 348.0468 0000934  18.8388  51.2993  1.86233506 48960
BEIDOU 19 (C58)         
1 40749U 15037B   22279.07371606 -.00000093  00000+0  00000+0 0  9993
2 40749  55.8273 348.0131 0003377 295.5516   8.7845  1.86233120 48964
BEIDOU 20 (C18)         
1 40938U 15053A   22278.44146640 -.00000113  00000+0  00000+0 0  9992
2 40938  51.3336 274.6051 0045932 200.4164 154.2576  1.00267351 25802
BEIDOU IGSO-6 (C13)     
1 41434U 16021A   22278.85093656 -.00000141  00000+0  00000+0 0  9994
2 41434  58.2639  51.6944 0045678 215.1610 148.2321  1.00261889 23940
BEIDOU-2 G7 (C03)       
1 41586U 16037A   22278.86309740 -.00000370  00000+0  00000+0 0  9998
2 41586   1.6173  68.2616 0007858 354.6319  12.9177  1.00270702 23250
BEIDOU-3 M1 (C19)       
1 43001U 17069A   22278.47573501  .00000058  00000+0  00000+0 0  9995
2 43001  55.6178 107.9967 0007533 295.3866 276.7661  1.86231778 33440
BEIDOU-3 M2 (C20)       
1 43002U 17069B   22278.81618752  .00000059  00000+0  00000+0 0  9993
2 43002  55.6168 108.0212 0006030 326.9456 156.3264  1.86231353 33443
BEIDOU-3 M3 (C27)       
1 43107U 18003A   22278.92701992 -.00000095  00000+0  00000+0 0  9990
2 43107  55.2767 348.8967 0003664  70.5813 293.2973  1.86232603 32211
BEIDOU-3 M4 (C28)       
1 43108U 18003B   22278.44991970 -.00000094  00000+0  00000+0 0  9994
2 43108  55.2700 348.9018 0003848 238.7617 208.5115  1.86231033 32203
BEIDOU-3 M5 (C21)       
1 43207U 18018A   22277.69026169  .00000054  00000+0  00000+0 0  9990
2 43207  55.5750 108.1341 0004296   8.7848 351.2905  1.86231601 31578
BEIDOU-3 M6 (C22)       
1 43208U 18018B   22278.83085193  .00000059  00000+0  00000+0 0  9995
2 43208  55.5768 108.1006 0005398 311.3030  48.7193  1.86231653 31592
BEIDOU-3 M7 (C29)       
1 43245U 18029A   22279.06043991 -.00000092  00000+0  00000+0 0  9992
2 43245  55.1855 346.6531 0001079 201.2305 162.6186  1.86232822 30756
BEIDOU-3 M8 (C30)       
1 43246U 18029B   22278.57800204 -.00000091  00000+0  10000-3 0  9990
2 43246  55.1826 346.6994 0002924 351.4235  95.5964  1.86233041 30738
BEIDOU IGSO-7 (C16)     
1 43539U 18057A   22278.64094793 -.00000167  00000+0  00000+0 0  9991
2 43539  55.0911 174.7576 0051905 227.5526 317.2479  1.00277123 15612
BEIDOU-3 M9 (C23)       
1 43581U 18062A   22278.42558387 -.00000019  00000+0  00000+0 0  9990
2 43581  54.2497 228.3209 0005512 280.9006 275.2300  1.86232008 28478
BEIDOU-3 M10 (C24)      
1 43582U 18062B   22278.80804766 -.00000024  00000+0  00000+0 0  9994
2 43582  54.2493 228.2966 0005236 346.1442 198.3319  1.86232479 28484
BEIDOU-3 M11 (C25)      
1 43602U 18067A   22278.88865968 -.00000026  00000+0  00000+0 0  9993
2 43602  54.3326 226.9192 0007104   3.6759 275.9926  1.86231617 27973
BEIDOU-3 M12 (C26)      
1 43603U 18067B   22278.87025251 -.00000026  00000+0  00000+0 0  9996
2 43603  54.3293 226.8861 0004430 348.2090 189.4717  1.86231556 27995
BEIDOU-3 M13 (C32)      
1 43622U 18072A   22278.33533315  .00000057  00000+0  00000+0 0  9992
2 43622  55.5432 107.6639 0004339 289.9899 278.0555  1.86231802 27493
BEIDOU-3 M14 (C33)      
1 43623U 18072B   22278.45027855  .00000058  00000+0  00000+0 0  9994
2 43623  55.5453 107.6516 0002894 339.3643  35.9885  1.86231831 27502
BEIDOU-3 M15 (C34)      
1 43647U 18078A   22278.72142792 -.00000092  00000+0  10000-3 0  9998
2 43647  55.0808 346.8143 0005113   2.8173  89.9994  1.86232688 27014
BEIDOU-3 M16 (C35)      
1 43648U 18078B   22278.73623791 -.00000092  00000+0  00000+0 0  9998
2 43648  55.0767 346.8190 0002950  16.3187 354.0025  1.86232340 27030
BEIDOU-3 G1 (C59)       
1 43683U 18085A   22278.88117738 -.00000297  00000+0  00000+0 0  9997
2 43683   1.0182 149.3620 0004462  50.7617 271.5937  1.00266020 14517
BEIDOU-3 M17 (C36)      
1 43706U 18093A   22278.33438928 -.00000017  00000+0  00000+0 0  9999
2 43706  54.3310 228.2176 0010254 279.8386  80.0188  1.86231767 26386
BEIDOU-3 M18 (C37)      
1 43707U 18093B   22278.47525079 -.00000019  00000+0  00000+0 0  9991
2 43707  54.3327 228.2030 0009189 301.7473 243.8801  1.86232351 26371
BEIDOU-3 IGSO-1 (C38)   
1 44204U 19023A   22278.27549512 -.00000205  00000+0  00000+0 0  9991
2 44204  56.7233  51.7954 0023810 188.9593 352.1310  1.00276730 12813
BEIDOU-2 G8             
1 44231U 19027A   22278.95440083 -.00000264  00000+0  00000+0 0  9998
2 44231   1.1235  79.2400 0006387 119.4996 303.9875  1.00269690 12532
BEIDOU-3 IGSO-2 (C39)   
1 44337U 19035A   22279.09632609 -.00000162  00000+0  00000+0 0  9994
2 44337  55.1258 170.7404 0025544 190.9810 167.4414  1.00270716 12150
BEIDOU-3 M23 (C45)      
1 44542U 19061A   22278.27067824 -.00000016  00000+0  00000+0 0  9999
2 44542  54.5578 228.3835 0008889 335.7449  24.1867  1.86231434 20635
BEIDOU-3 M24 (C46)      
1 44543U 19061B   22278.75850182 -.00000023  00000+0  00000+0 0  9998
2 44543  54.5566 228.3359 0006483 319.0872 279.3618  1.86231916 20630
BEIDOU-3 IGSO-3         
1 44709U 19073A   22278.94943042 -.00000150  00000+0  10000-3 0  9990
2 44709  57.0862 295.2365 0027290 183.0891 358.2217  1.00275413 10907
BEIDOU-3 M21            
1 44793U 19078A   22278.54849294 -.00000092  00000+0  10000-3 0  9993
2 44793  54.9298 346.8273 0004945  13.5107 277.0890  1.86232410 19491
BEIDOU-3 M22            
1 44794U 19078B   22278.87350924 -.00000092  00000+0  00000+0 0  9992
2 44794  54.9034 346.8063 0002858   3.7918  56.5684  1.86232840 19509
BEIDOU-3 M19            
1 44864U 19090A   22279.24395911  .00000059  00000+0  00000+0 0  9993
2 44864  55.4801 107.8388 0014821 268.9921 234.1103  1.86231740 19094
BEIDOU-3 M20            
1 44865U 19090B   22278.67418946  .00000058  00000+0  00000+0 0  9993
2 44865  55.4803 107.8890 0013051 285.8105 285.1432  1.86231945 19055
BEIDOU-3 G2             
1 45344U 20017A   22278.84206829 -.00000159  00000+0  00000+0 0  9994
2 45344   2.0137 357.7164 0004024 160.6980 239.2641  1.00270464  9727
BEIDOU-3 G3             
1 45807U 20040A   22278.86309758 -.00000373  00000+0  00000+0 0  9999
2 45807   1.2008 307.0648 0008562 334.9006 153.8460  1.00270632  8535
